NORAD_CAT_ID,OBJECT_NAME,OBJECT_TYPE,EPOCH,MEAN_MOTION,ECCENTRICITY,INCLINATION,RA_OF_ASC_NODE,ARG_OF_PERICENTER,MEAN_ANOMALY,BSTAR,MEAN_MOTION_DOT,MEAN_MOTION_DDOT,TLE_LINE0,TLE_LINE1,TLE_LINE2,SEMIMAJOR_AXIS,PERIOD,APOGEE,PERIGEE,DECAYED
54771.0,STARLINK-5451,PAYLOAD,2023-07-03 05:08:43,15.08843696,0.0001157,53.2171,120.4453,81.5206,278.5917,0.00012497,1.702e-05,0.0,0 STARLINK-5451,1 54771U 22175P   23184.21439799  .00001702  00000-0  12497-3 0  9999,2 54771  53.2171 120.4453 0001157  81.5206 278.5917 15.08843696 29819,6917.869,95.437,540.534,538.934,0.0
54771.0,STARLINK-5451,PAYLOAD,2023-07-03 13:05:40,15.08838625,0.0001236,53.2162,118.9571,85.1815,274.9318,-5.1483e-06,-3.7e-06,0.0,0 STARLINK-5451,1 54771U 22175P   23184.54560472 -.00000370  00000-0 -51483-5 0  9990,2 54771  53.2162 118.9571 0001236  85.1815 274.9318 15.08838625 29862,6917.885,95.438,540.605,538.895,0.0
54771.0,STARLINK-5451,PAYLOAD,2023-07-05 01:39:31,15.0884592,0.0001149,53.2165,112.1166,93.3595,266.7529,8.0008e-05,9.86e-06,0.0,0 STARLINK-5451,1 54771U 22175P   23186.06911672  .00000986  00000-0  80008-4 0  9996,2 54771  53.2165 112.1166 0001149  93.3595 266.7529 15.08845920 30096,6917.862,95.437,540.522,538.932,0.0
54771.0,STARLINK-5451,PAYLOAD,2023-07-06 01:30:19,15.08834507,0.0001345,53.2173,107.6592,90.0875,270.0271,4.4686e-05,4.23e-06,0.0,0 STARLINK-5451,1 54771U 22175P   23187.06272667  .00000423  00000-0  44686-4 0  9999,2 54771  53.2173 107.6592 0001345  90.0875 270.0271 15.08834507 30248,6917.897,95.438,540.693,538.832,0.0
54771.0,STARLINK-5451,PAYLOAD,2023-07-07 01:21:06,15.08846349,0.0001077,53.217,103.1977,89.5789,270.5327,2.2159e-05,6.5e-07,0.0,0 STARLINK-5451,1 54771U 22175P   23188.05632017  .00000065  00000-0  22159-4 0  9991,2 54771  53.2170 103.1977 0001077  89.5789 270.5327 15.08846349 30392,6917.861,95.437,540.471,538.981,0.0
54771.0,STARLINK-5451,PAYLOAD,2023-07-08 01:11:53,15.0883567,0.0001041,53.2174,98.7381,88.4681,271.6431,4.9168e-05,4.95e-06,0.0,0 STARLINK-5451,1 54771U 22175P   23189.04992839  .00000495  00000-0  49168-4 0  9998,2 54771  53.2174  98.7381 0001041  88.4681 271.6431 15.08835670 30544,6917.894,95.438,540.479,539.038,0.0
54771.0,STARLINK-5451,PAYLOAD,2023-07-08 17:05:43,15.0885205,0.0001112,53.2169,95.7644,85.5626,274.5494,0.00013928,1.93e-05,0.0,0 STARLINK-5451,1 54771U 22175P   23189.71231278  .00001930  00000-0  13928-3 0  9994,2 54771  53.2169  95.7644 0001112  85.5626 274.5494 15.08852050 30646,6917.844,95.437,540.478,538.939,0.0
54771.0,STARLINK-5451,PAYLOAD,2023-07-09 04:13:24,15.08865716,0.0001302,53.2178,93.6826,88.3983,271.7159,0.00012782,1.748e-05,0.0,0 STARLINK-5451,1 54771U 22175P   23190.17598048  .00001748  00000-0  12782-3 0  9991,2 54771  53.2178  93.6826 0001302  88.3983 271.7159 15.08865716 30711,6917.802,95.436,540.567,538.766,0.0
54771.0,STARLINK-5451,PAYLOAD,2023-07-09 10:35:00,15.08820573,7.49e-05,53.2169,92.4941,80.4492,279.6584,-0.00014079,-2.526e-05,0.0,0 STARLINK-5451,1 54771U 22175P   23190.44097510 -.00002526  00000-0 -14079-3 0  9997,2 54771  53.2169  92.4941 0000749  80.4492 279.6584 15.08820573 30753,6917.94,95.439,540.323,539.287,0.0
54771.0,STARLINK-5451,PAYLOAD,2023-07-09 18:31:58,15.08799569,0.0001472,53.2177,91.0077,84.8949,275.2211,-0.00025457,-4.333e-05,0.0,0 STARLINK-5451,1 54771U 22175P   23190.77220029 -.00004333  00000-0 -25457-3 0  9996,2 54771  53.2177  91.0077 0001472  84.8949 275.2211 15.08799569 30801,6918.004,95.44,540.887,538.851,0.0
54771.0,STARLINK-5451,PAYLOAD,2023-07-10 02:28:52,15.08820545,0.0001282,53.2182,89.5198,87.3342,272.7796,-0.00013854,-2.491e-05,0.0,0 STARLINK-5451,1 54771U 22175P   23191.10338771 -.00002491  00000-0 -13854-3 0  9999,2 54771  53.2182  89.5198 0001282  87.3342 272.7796 15.08820545 30851,6917.94,95.439,540.692,538.918,0.0
54771.0,STARLINK-5451,PAYLOAD,2023-07-10 10:25:48,15.08828948,0.000121,53.2174,88.0331,96.082,264.031,-0.00011146,-2.061e-05,0.0,0 STARLINK-5451,1 54771U 22175P   23191.43458394 -.00002061  00000-0 -11146-3 0  9994,2 54771  53.2174  88.0331 0001210  96.0820 264.0310 15.08828948 30901,6917.914,95.438,540.616,538.942,0.0
54771.0,STARLINK-5451,PAYLOAD,2023-07-11 02:19:38,15.0884425,0.000137,53.2172,85.0586,95.8637,264.2511,-3.8391e-05,-8.99e-06,0.0,0 STARLINK-5451,1 54771U 22175P   23192.09697508 -.00000899  00000-0 -38391-4 0  9998,2 54771  53.2172  85.0586 0001370  95.8637 264.2511 15.08844250 31009,6917.867,95.437,540.68,538.785,0.0
54771.0,STARLINK-5451,PAYLOAD,2023-07-12 02:10:25,15.08852853,0.0001349,53.2166,80.5985,94.399,265.7157,0.00054499,8.399e-05,0.0,0 STARLINK-5451,1 54771U 22175P   23193.09057611  .00008399  00000-0  54499-3 0  9991,2 54771  53.2166  80.5985 0001349  94.3990 265.7157 15.08852853 31153,6917.841,95.437,540.639,538.773,0.0
54771.0,STARLINK-5451,PAYLOAD,2023-07-13 16:19:40,15.08849068,0.0001359,53.2174,73.4633,85.3137,274.801,-0.00015281,-2.72e-05,0.0,0 STARLINK-5451,1 54771U 22175P   23194.68033436 -.00002720  00000-0 -15281-3 0  9996,2 54771  53.2174  73.4633 0001359  85.3137 274.8010 15.08849068 31396,6917.853,95.437,540.658,538.778,0.0
54771.0,STARLINK-5451,PAYLOAD,2023-07-15 01:42:46,15.08851302,0.0001224,53.217,67.2175,85.5382,274.575,0.0002442,3.602e-05,0.0,0 STARLINK-5451,1 54771U 22175P   23196.07136964  .00003602  00000-0  24420-3 0  9994,2 54771  53.2170  67.2175 0001224  85.5382 274.5750 15.08851302 31605,6917.846,95.437,540.558,538.864,0.0
54771.0,STARLINK-5451,PAYLOAD,2023-07-16 01:33:33,15.08839877,0.0001246,53.2175,62.7546,92.2419,267.8716,3.1399e-05,2.12e-06,0.0,0 STARLINK-5451,1 54771U 22175P   23197.06497563  .00000212  00000-0  31399-4 0  9997,2 54771  53.2175  62.7546 0001246  92.2419 267.8716 15.08839877 31758,6917.881,95.438,540.608,538.884,0.0
54771.0,STARLINK-5451,PAYLOAD,2023-07-16 23:48:58,15.08834218,0.0001333,53.2191,58.5935,104.2945,255.8195,8.4551e-05,1.058e-05,0.0,0 STARLINK-5451,1 54771U 22175P   23197.99234381  .00001058  00000-0  84551-4 0  9993,2 54771  53.2191  58.5935 0001333 104.2945 255.8195 15.08834218 31893,6917.898,95.438,540.685,538.841,0.0
54771.0,STARLINK-5451,PAYLOAD,2023-07-17 23:39:44,15.0885343,0.0001132,53.2176,54.1334,93.6073,266.5049,0.00027176,4.041e-05,0.0,0 STARLINK-5451,1 54771U 22175P   23198.98593240  .00004041  00000-0  27176-3 0  9999,2 54771  53.2176  54.1334 0001132  93.6073 266.5049 15.08853430 32043,6917.839,95.437,540.487,538.921,0.0
54771.0,STARLINK-5451,PAYLOAD,2023-07-18 17:08:59,15.08836756,0.0001135,53.2169,50.8628,92.984,267.1282,0.00011296,1.51e-05,0.0,0 STARLINK-5451,1 54771U 22175P   23199.71458282  .00001510  00000-0  11296-3 0  9991,2 54771  53.2169  50.8628 0001135  92.9840 267.1282 15.08836756 32151,6917.89,95.438,540.54,538.97,0.0
54771.0,STARLINK-5451,PAYLOAD,2023-07-19 18:35:10,15.08838228,0.0001231,53.2163,46.1071,80.5524,279.5608,8.6707e-05,1.092e-05,0.0,0 STARLINK-5451,1 54771U 22175P   23200.77442512  .00001092  00000-0  86707-4 0  9994,2 54771  53.2163  46.1071 0001231  80.5524 279.5608 15.08838228 32317,6917.886,95.438,540.602,538.899,0.0
54771.0,STARLINK-5451,PAYLOAD,2023-07-20 23:12:06,15.08849733,9.91e-05,53.217,40.7507,95.5901,264.5204,0.00027373,4.072e-05,0.0,0 STARLINK-5451,1 54771U 22175P   23201.96674092  .00004072  00000-0  27373-3 0  9990,2 54771  53.2170  40.7507 0000991  95.5901 264.5204 15.08849733 32494,6917.851,95.437,540.401,539.03,0.0
54771.0,STARLINK-5451,PAYLOAD,2023-07-21 13:30:34,15.08844735,0.0001056,53.217,38.0736,104.2129,255.8981,0.00018202,2.611e-05,0.0,0 STARLINK-5451,1 54771U 22175P   23202.56290194  .00002611  00000-0  18202-3 0  9992,2 54771  53.2170  38.0736 0001056 104.2129 255.8981 15.08844735 32583,6917.866,95.437,540.461,539.0,0.0
54771.0,STARLINK-5451,PAYLOAD,2023-07-23 21:09:04,15.08833777,9.94e-05,53.2176,27.6672,106.1428,253.9673,-4.0103e-05,-9.26e-06,0.0,0 STARLINK-5451,1 54771U 22175P   23204.88130628 -.00000926  00000-0 -40103-4 0  9999,2 54771  53.2176  27.6672 0000994 106.1428 253.9673 15.08833777 35095,6917.899,95.438,540.452,539.077,0.0
54771.0,STARLINK-5451,PAYLOAD,2023-07-24 20:59:51,15.08846803,9.19e-05,53.219,23.2054,85.1778,274.9319,0.00016143,2.283e-05,0.0,0 STARLINK-5451,1 54771U 22175P   23205.87490140  .00002283  00000-0  16143-3 0  9999,2 54771  53.2190  23.2054 0000919  85.1778 274.9319 15.08846803 35249,6917.86,95.437,540.36,539.089,0.0
54771.0,STARLINK-5451,PAYLOAD,2023-07-26 11:09:07,15.0883687,9.45e-05,53.2179,16.0696,107.5456,252.564,0.00014682,2.049e-05,0.0,0 STARLINK-5451,1 54771U 22175P   23207.46466786  .00002049  00000-0  14682-3 0  9991,2 54771  53.2179  16.0696 0000945 107.5456 252.5640 15.08836870 35487,6917.89,95.438,540.409,539.101,0.0
54771.0,STARLINK-5451,PAYLOAD,2023-07-26 19:06:02,15.08844856,0.0001003,53.216,14.588,83.5964,276.5142,0.00023197,3.406e-05,0.0,0 STARLINK-5451,1 54771U 22175P   23207.79586442  .00003406  00000-0  23197-3 0  9998,2 54771  53.2160  14.5880 0001003  83.5964 276.5142 15.08844856 35530,6917.866,95.437,540.424,539.037,0.0
54771.0,STARLINK-5451,PAYLOAD,2023-07-27 10:59:54,15.08838598,0.0001326,53.2172,11.6095,109.5428,250.5707,4.1203e-05,3.68e-06,0.0,0 STARLINK-5451,1 54771U 22175P   23208.45826852  .00000368  00000-0  41203-4 0  9997,2 54771  53.2172  11.6095 0001326 109.5428 250.5707 15.08838598 33477,6917.885,95.438,540.667,538.832,0.0
54771.0,STARLINK-5451,PAYLOAD,2023-07-27 18:56:50,15.08833688,0.0001115,53.2171,10.1238,110.7464,249.3648,-3.0319e-05,-7.7e-06,0.0,0 STARLINK-5451,1 54771U 22175P   23208.78947163 -.00000770  00000-0 -30319-4 0  9997,2 54771  53.2171  10.1238 0001115 110.7464 249.3648 15.08833688 35689,6917.9,95.438,540.536,538.993,0.0
54771.0,STARLINK-5451,PAYLOAD,2023-07-28 10:50:41,15.08842486,9.11e-05,53.218,7.149,113.7515,246.3573,-2.0975e-05,-6.22e-06,0.0,0 STARLINK-5451,1 54771U 22175P   23209.45187069 -.00000622  00000-0 -20975-4 0  9996,2 54771  53.2180   7.1490 0000911 113.7515 246.3573 15.08842486 35789,6917.873,95.437,540.368,539.108,0.0
